KUIPER-00268            
1 67790U 26030AC  26064.91794817  .00045953  00000+0  13005-2 0  9990
2 67790  51.8841 237.2975 0002536  37.4716 322.6446 15.35842504  4511
KUIPER-00270            
1 67791U 26030AD  26064.93731813  .00024789  00000+0  73865-3 0  9995
2 67791  51.8814 237.4126 0010213  45.9042 314.2783 15.34486989  4510
KUIPER-00274            
1 67792U 26030AE  26064.89935697 -.00037828  00000+0 -12315-2 0  9999
2 67792  51.8816 237.9052 0015940  63.7000 296.5619 15.31053736  4506
KUIPER-00275            
1 67793U 26030AF  26064.93467779  .00024023  00000+0  71487-3 0  9993
2 67793  51.8846 237.4047 0009010  42.9278 317.2409 15.34559702  4512
KUIPER-00276            
1 67794U 26030AG  26064.90323819 -.00020507  00000+0 -65460-3 0  9996
2 67794  51.8812 237.9285 0018815  56.7284 303.5500 15.31286386  4509
KUIPER-00279            
1 67795U 26030AH  26064.92766851  .00030920  00000+0  89677-3 0  9990
2 67795  51.8804 237.3499 0006624  36.2433 323.9001 15.35245594  4519
CREW DRAGON 12          
1 67796U 26031A   26064.77024645  .00007682  00000+0  15013-3 0  9995
2 67796  51.6317  91.7338 0008144 160.7168 199.4130 15.48462755555668
STARLINK-36800          
1 67797U 26032A   26064.94539854  .00228879  00000+0  14897-2 0  9990
2 67797  97.2843 251.2430 0001197  82.9382 277.2019 15.75266405  4191
STARLINK-36798          
1 67798U 26032B   26064.91668981 -.00055790  00000+0 -37529-3 0  9992
2 67798  97.2847 251.2514 0001684  83.9118 205.5102 15.75208443  4115
STARLINK-36804          
1 67799U 26032C   26064.94363569  .00257991  00000+0  16729-2 0  9993
2 67799  97.2843 251.2456 0001397  78.9780 281.1643 15.75271106  4191
STARLINK-36354          
1 67800U 26032D   26064.91668981  .00003973  00000+0  27515-4 0  9995
2 67800  97.2847 251.2447 0001767  91.3144 178.1208 15.75173596  4176
STARLINK-36773          
1 67801U 26032E   26064.94045772  .00192900  00000+0  12616-2 0  9999
2 67801  97.2845 251.2494 0001556  48.2169 311.9229 15.75254365  4197
